ASTRA 1M                
1 33436U 08057A   17345.88587667  .00000113  00000-0  00000-0 0  9999
2 33436   0.0162 358.4174 0002052 207.5029 212.9588  1.00268830 14565
